[{"OBJECT_NAME":"REIMEI (INDEX)","OBJECT_ID":"2005-031B","EPOCH":"2026-03-09T21:15:47.083968","MEAN_MOTION":15.09838737,"ECCENTRICITY":0.00209792,"INCLINATION":97.9988,"RA_OF_ASC_NODE":188.389,"ARG_OF_PERICENTER":89.5619,"MEAN_ANOMALY":270.8013,"EPHEMERIS_TYPE":0,"CLASSIFICATION_TYPE":"U","NORAD_CAT_ID":28810,"ELEMENT_SET_NO":999,"REV_AT_EPOCH":11600,"BSTAR":0.00050498736,"MEAN_MOTION_DOT":8.144e-5,"MEAN_MOTION_DDOT":0},{"OBJECT_NAME":"STARLINK-4139","OBJECT_ID":"2022-062BB","EPOCH":"2026-03-09T23:31:21.107424","MEAN_MOTION":15.08843823,"ECCENTRICITY":0.00014114,"INCLINATION":53.2194,"RA_OF_ASC_NODE":12.8116,"ARG_OF_PERICENTER":101.5826,"MEAN_ANOMALY":258.5324,"EPHEMERIS_TYPE":0,"CLASSIFICATION_TYPE":"U","NORAD_CAT_ID":52879,"ELEMENT_SET_NO":999,"REV_AT_EPOCH":20611,"BSTAR":5.3246769e-5,"MEAN_MOTION_DOT":5.6e-6,"MEAN_MOTION_DDOT":0}]
